STARLINK-37404          
1 68786U 26086W   26117.74586404 -.00743481  18069-3 -18318-2 0  9991
2 68786  97.2776 153.1972 0000631 131.0749 229.0582 15.95999929  1217
