{
  "norad_id": 68786,
  "name": "STARLINK-37404",
  "history": [
    {
      "epoch": "2026-04-27T17:54:02.653056Z",
      "apogee_km": 285.9507194868502,
      "perigee_km": 285.10856529658395,
      "latitude_deg": 4.182171683437073e-06,
      "longitude_deg": 28.954886035518257,
      "height_km": 289.00203486064424,
      "semi_major_axis_km": 6663.666642391717,
      "eccentricity": 6.319e-05,
      "inclination_deg": 97.2776,
      "raan_deg": 153.1972,
      "arg_perigee_deg": 131.0749,
      "mean_anomaly_deg": 229.0582,
      "mean_motion_rev_day": 15.95999929
    }
  ]
}